P/2017 R1 (PANSTARRS),e,2.5740,143.6174,178.5916,4.135070,0.1172141,0.19566733,161.3842,01/16.0/2021,2000,g 13.5,4.0
# From MPC108595
C/2017 S2 (PANSTARRS),e,12.6769,62.3957,305.9664,20.54619,0.0105830,0.82423458,13.0721,01/16.0/2021,2000,g 13.0,4.0
# From MPC114599
C/2017 S3 (PANSTARRS),h,08/16.0435/2018,99.1505,171.2104,255.8386,1.000055,0.207994,2000,11.0,4.0
# From MPC114599
P/2017 S5 (ATLAS),e,11.8512,252.3739,99.8620,3.168124,0.1747836,0.31416979,221.4769,01/16.0/2021,2000,g 14.0,4.0
# From MPC109591
C/2017 S6 (Catalina),h,02/26.4226/2018,152.8674,131.0397,134.8187,1.000654,1.544140,2000,12.5,4.0
# From MPC114599
C/2017 S7 (Lemmon),h,05/25.1305/2017,124.2291,262.7788,187.5781,1.000297,7.607361,2000,7.0,4.0
# From MPC114599
P/2017 S8 (PANSTARRS),e,29.8203,191.6306,254.7540,2.779757,0.2126639,0.39201625,230.7064,01/16.0/2021,2000,g 16.0,4.0
# From MPC107050
P/2017 S9 (PANSTARRS),e,14.1439,146.2221,237.7098,3.153691,0.1759849,0.30514855,223.9861,01/16.0/2021,2000,g 17.0,4.0
# From MPC114600
C/2017 T1 (Heinze),e,96.8437,102.3354,96.9395,23646,0.0000003,0.99997536,0.0000,02/21.2038/2018,2000,g 14.5,4.0
# From MPC119996
C/2017 T2 (PANSTARRS),e,57.2276,64.3776,93.0024,3280,0.0000052,0.99950754,0.0000,05/04.9514/2020,2000,g  5.0,4.0
# From MPC114600
C/2017 T3 (ATLAS),e,88.0705,230.0913,246.8313,1227,0.0000229,0.99932750,0.0000,07/18.9099/2018,2000,g 10.0,4.0
# From MPC115882
P/2017 TW13 (Lemmon),e,44.8497,322.2958,119.9994,7.144414,0.0516124,0.70942918,48.5236,01/16.0/2021,2000,g 15.0,2.0
# From MPC114600
C/2017 U2 (Fuls),e,95.3889,149.7086,147.7943,3385,0.0000050,0.99801897,0.0000,08/28.2358/2017,2000,g  9.0,4.0
# From MPC114600
P/2017 U3 (PANSTARRS),e,15.9160,165.1076,296.9175,4.930323,0.0900308,0.09888486,57.6379,01/16.0/2021,2000,g 11.0,4.0
# From MPC114600
C/2017 U4 (PANSTARRS),h,09/23.5357/2018,158.2168,245.9443,159.0395,1.002524,7.721338,2000,7.0,4.0
# From MPC114600
C/2017 U5 (PANSTARRS),e,18.9731,163.0850,262.0318,16.87500,0.0142180,0.74394245,15.9890,01/16.0/2021,2000,g 12.0,4.0
# From MPC118841
C/2017 U7,h,09/14.0422/2019,142.5913,276.2447,326.2996,1.000844,6.422449,2000,8.3,2.0
# From MPC114600
C/2017 W2 (Leonard),e,98.1990,312.8417,169.0452,13.66356,0.0195145,0.71071609,22.8650,01/16.0/2021,2000,g 11.0,4.0
# From MPC114601
P/2017 W3 (Gibbs),e,18.1692,210.3042,327.7786,7.843406,0.0448691,0.50769049,47.1938,01/16.0/2021,2000,g 10.5,4.0
# From MPC115883
C/2017 X1 (PANSTARRS),e,31.3039,251.1299,283.2878,31.34948,0.0056151,0.85105993,5.3102,01/16.0/2021,2000,g 10.0,4.0
# From MPC117069
C/2017 Y1 (PANSTARRS),e,55.2668,307.5310,134.3146,1828,0.0000126,0.99796883,0.0000,08/31.1503/2017,2000,g 11.5,4.0
# From MPC118841
C/2017 Y2 (PANSTARRS),h,11/04.6707/2020,128.4125,65.9938,147.8805,1.000927,4.632120,2000,15.0,4.0
# From MPC111770
P/2017 Y3 (Leonard),e,27.5614,153.8488,67.5992,9.847159,0.0318961,0.87014105,34.1381,01/16.0/2021,2000,g 16.5,4.0
# From MPC114601
C/2018 A1 (PANSTARRS),e,53.6065,336.6508,96.2707,25.10260,0.0078366,0.90379929,9.2752,01/16.0/2021,2000,g 12.5,4.0
# From MPC119996
C/2018 A3 (ATLAS),e,139.5439,194.2940,86.3908,466.1870,0.0000979,0.99297375,0.0000,01/12.5987/2019,2000,g  8.5,4.0
# From MPC114601
C/2018 A4 (PANSTARRS),e,3.1483,97.6291,356.0424,12.20405,0.0231179,0.80335268,22.5056,01/16.0/2021,2000,g 14.0,4.0
# From MPC109147
P/2018 A5 (PANSTARRS),e,23.5806,87.8243,359.5728,5.635526,0.0736720,0.52226776,89.2133,01/16.0/2021,2000,g 15.0,4.0
# From MPC119996
C/2018 A6 (Gibbs),e,76.9846,340.3766,264.5582,15.31859,0.0164390,0.80292243,9.0706,01/16.0/2021,2000,g  9.0,4.0
# From MPC118841
C/2018 B1 (Lemmon),h,03/29.5009/2018,162.4200,133.1909,68.3102,1.000965,5.116124,2000,9.0,4.0
# From MPC114601
P/2018 C1 (Lemmon-Read),e,5.1221,270.3833,235.6767,5.654145,0.0733084,0.53329687,77.3318,01/16.0/2021,2000,g 13.5,4.0
# From MPC114601
C/2018 C2 (Lemmon),h,06/01.7218/2018,34.4594,91.1470,134.1135,1.000771,1.958136,2000,13.0,4.0
# From MPEC 2020-AA5
C/2018 DO4 (Lemmon),e,160.4739,251.1509,176.0114,25.74983,0.0075430,0.90650809,3.8973,01/16.0/2021,2000,g 11.0,4.0
# From MPC114602
C/2018 E1 (ATLAS),e,72.5137,146.8632,299.3989,53.95421,0.0024869,0.94991811,2.4986,01/16.0/2021,2000,g 10.5,4.0
# From MPC114602
C/2018 E2 (Barros),e,97.7098,67.1955,277.4686,4004,0.0000039,0.99902094,0.0000,12/24.0094/2017,2000,g 10.5,4.0
# From MPC114602
C/2018 EN4 (NEOWISE),e,81.6436,136.1435,35.0074,18.21805,0.0126751,0.92038812,12.0929,01/16.0/2021,2000,g 15.0,4.0
# From MPC114602
C/2018 EF9 (Lemmon),e,84.6410,172.5663,72.6200,553.1762,0.0000758,0.99718419,0.0000,05/22.8090/2018,2000,g 18.0,2.0
# From MPC115883
C/2018 F1 (Grauer),e,46.0770,177.2759,71.6347,285.1973,0.0002046,0.98950126,0.0000,12/13.7851/2018,2000,g 11.5,4.0
# From MPC110084
C/2018 F3 (Johnson),p,08/15.2314/2017,105.5348,293.0113,2.483172,173.0311,2000,13.0,4.0
# From MPC119996
C/2018 F4 (PANSTARRS),h,12/04.1440/2019,78.0938,26.5131,263.2287,1.001330,3.440280,2000,11.9,2.0
# From MPC114602
P/2018 H2 (PANSTARRS),e,7.3881,68.4030,119.9772,4.393296,0.1070332,0.54001863,116.6044,01/16.0/2021,2000,g 16.6,2.0
# From MPC114602
C/2018 K1 (Weiland),e,164.1958,260.0401,325.0749,29.96094,0.0060100,0.93718989,6.1014,01/16.0/2021,2000,g 14.9,4.0
# From MPC118094
C/2018 KJ3 (Lemmon),e,136.7085,91.6004,217.6624,826.3333,0.0000415,0.99560790,0.0000,09/09.6896/2019,2000,g 12.2,2.0
# From MPC114602
P/2018 L1 (PANSTARRS),e,10.5927,268.6308,17.9807,3.650671,0.1413010,0.48288022,112.3882,01/16.0/2021,2000,g 15.0,4.0
# From MPC118841
C/2018 L2 (ATLAS),e,67.3888,243.0237,56.2725,259.1834,0.0002362,0.99339181,0.0000,12/02.6823/2018,2000,g 10.0,4.0
# From MPC114603
P/2018 L4 (PANSTARRS),e,26.6246,145.1567,140.5593,4.940444,0.0897543,0.66017583,80.6997,01/16.0/2021,2000,g 17.5,4.0
# From MPC119996
P/2018 L5 (Leonard),e,2.2082,219.1276,93.7993,3.627738,0.1426429,0.36478316,140.7756,01/16.0/2021,2000,g 14.5,4.0
# From MPC117070
C/2018 M1 (Catalina),e,37.2904,339.4172,14.1625,21.35279,0.0099890,0.93900179,9.1970,01/16.0/2021,2000,g 15.5,4.0
# From MPC112393
C/2018 N1 (NEOWISE),e,159.4444,292.4452,354.6229,349.3413,0.0001509,0.99625064,0.0000,08/01.9363/2018,2000,g 15.5,4.0
# From MPC119996
C/2018 N2 (ASASSN),h,11/10.9699/2019,77.5284,25.2456,24.4033,1.000109,3.124780,2000,6.0,4.0
# From MPC114603
C/2018 O1 (ATLAS),e,154.0392,87.6446,162.5796,27.90101,0.0066877,0.94407548,5.8077,01/16.0/2021,2000,g 17.0,4.0
# From MPC114603
P/2018 P3 (PANSTARRS),e,8.9089,59.1850,305.8731,3.006275,0.1890867,0.41645607,156.7977,01/16.0/2021,2000,g 14.5,4.0
# From MPC114603
P/2018 P4 (PANSTARRS),e,23.1070,353.0761,8.2147,6.671439,0.0571972,0.45039231,45.7623,01/16.0/2021,2000,g 12.0,4.0
# From MPC118094
C/2018 P5 (PANSTARRS),e,7.2530,216.2417,131.7226,12.79675,0.0215305,0.64230206,14.8344,01/16.0/2021,2000,g 11.0,4.0
# From MPC118841
C/2018 R3 (Lemmon),e,69.7278,324.6382,112.8352,1678,0.0000143,0.99923136,0.0000,06/07.2253/2019,2000,g  9.5,4.0
# From MPC112393
C/2018 R4 (Fuls),e,11.6836,298.4367,345.2764,329.5529,0.0001647,0.99480008,0.0000,03/03.6469/2018,2000,g 14.0,4.0
# From MPC114603
C/2018 R5 (Lemmon),e,103.7481,171.1293,178.0478,22.78363,0.0090629,0.84098151,6.6794,01/16.0/2021,2000,g 11.5,4.0
# From MPC119996
C/2018 U1 (Lemmon),h,11/02.8346/2021,108.2984,75.4798,180.4340,1.001156,4.993245,2000,5.0,4.0
# From MPC114604
C/2018 V1 (Machholz-Fujikawa-Iwamoto),h,12/03.3121/2018,144.0533,128.8773,88.8391,1.000354,0.386118,2000,12.0,4.0
# From MPC115884
C/2018 V2 (ATLAS),e,159.1666,357.0734,318.9554,25.18232,0.0077994,0.90159468,6.0960,01/16.0/2021,2000,g 15.0,4.0
# From MPC114604
P/2018 VN2 (Leonard),e,18.2486,226.5153,138.7381,4.064704,0.1202709,0.47844993,114.9004,01/16.0/2021,2000,g 15.0,4.0
# From MPC117070
A/2018 V3,e,164.9781,308.6560,3.5168,121.6205,0.0007348,0.98898041,0.0000,09/08.6776/2019,2000,g 15.7,2.0
# From MPC114604
C/2018 V4 (Africano),e,69.0031,78.3669,359.9467,206.3977,0.0003324,0.98450868,0.0000,03/01.4303/2019,2000,g 12.5,4.0
# From MPC114604
P/2018 V5 (Trujillo-Sheppard),e,10.5850,171.2900,260.7008,8.954250,0.0367841,0.47459615,30.7576,01/16.0/2021,2000,g 12.5,4.0
# From MPC115884
C/2018 W1 (Catalina),e,83.2643,233.5933,251.2498,21.71757,0.0097384,0.93734891,5.9917,01/16.0/2021,2000,g 15.7,2.0
# From MPC119996
C/2018 W2 (Africano),h,09/05.6565/2019,116.6172,181.8510,157.9745,1.000445,1.455004,2000,9.5,4.0
# From MPC119996
C/2018 X2 (Fitzsimmons),e,23.0694,340.8273,162.0587,147.9225,0.0005478,0.98562394,0.0000,07/08.4387/2019,2000,g 12.0,4.0
# From MPC114604
C/2018 X3 (PANSTARRS),e,43.3708,78.9086,359.7598,12.37915,0.0226291,0.78216595,16.9137,01/16.0/2021,2000,g 14.5,4.0
# From MPC118842
C/2018 Y1 (Iwamoto),e,160.3998,147.5111,358.0252,141.2567,0.0005871,0.99090152,0.0000,02/07.0131/2019,2000,g 11.5,4.0
# From MPC114605
P/2018 Y2 (Africano),e,11.6827,297.2663,162.3631,7.462691,0.0483460,0.47863100,36.0290,01/16.0/2021,2000,g 11.5,4.0
# From MPC114605
P/2019 A1 (PANSTARRS),e,13.7442,312.3031,150.7935,5.123261,0.0849932,0.56834351,70.3999,01/16.0/2021,2000,g 16.0,4.0
# From MPC114605
P/2019 A2 (ATLAS),e,14.8606,139.4686,324.0716,5.723202,0.0719856,0.38134693,56.6822,01/16.0/2021,2000,g 10.5,4.0
# From MPC114605
P/2019 A3 (PANSTARRS),e,15.3669,31.3027,325.4901,3.146918,0.1765533,0.26552143,158.5083,01/16.0/2021,2000,g 16.0,4.0
# From MPC114605
P/2019 A4 (PANSTARRS),e,13.3207,119.2994,341.7972,2.614604,0.2331284,0.08859091,180.3389,01/16.0/2021,2000,g 15.0,4.0
# From MPC118842
C/2019 A5 (PANSTARRS),e,67.5575,146.6261,355.9770,21.58918,0.0098254,0.70712459,5.7708,01/16.0/2021,2000,g  9.5,4.0
# From MPC114605
P/2019 A6 (Lemmon-PANSTARRS),e,33.2304,280.2685,156.2148,5.363167,0.0793546,0.63896146,69.1077,01/16.0/2021,2000,g 16.0,4.0
# From MPC114605
P/2019 A7 (PANSTARRS),e,17.7746,280.5228,119.2656,3.185709,0.1733385,0.16111103,191.5184,01/16.0/2021,2000,g 13.5,4.0
# From MPC115884
P/2019 A8 (PANSTARRS),e,3.1140,127.5753,22.4298,3.353186,0.1605157,0.45698532,135.8810,01/16.0/2021,2000,g 16.0,4.0
# From MPC118842
